#dP2021 12 21  0  0  0.00000000     288   u+U IGb14 FIT  GFZ                    
## 2189 172800.00000000   300.00000000 59569 0.0000000000000                    
+  124   C01C02C03C04C05C06C07C08C09C10C11C12C13C14C16C19C20                    
+        C21C22C23C24C25C26C27C28C29C30C32C33C34C35C36C37C38                    
+        C39C40C41C42C43C44C45C46C59C60E01E02E03E04E05E07E08                    
+        E09E11E12E13E14E15E18E19E21E24E25E26E27E30E31E33E36                    
+        G01G02G03G04G05G06G07G08G09G10G11G12G13G14G15G16G17                    
+        G18G19G20G21G22G23G24G25G26G27G28G29G30G31G32J01J02                    
+        J03J07R01R02R03R04R05R07R08R09R11R12R13R14R15R17R18                    
+        R19R20R21R22R24 00 00 00 00 00 00 00 00 00 00 00 00                    
++        10  0 10 10 10 10 10  0 10 10  8  8 10 10 10  5  6                    
++         6  7  6  6  7  5  6  9  8  7  9  7 10  5  5  7 10                    
++        10 10 10  7  7  6  7  8 10 10  5  6  5  5  6  7  6                    
++         5  6  6  7  5  6  6  5  7  6  6  5  6  7  6  6  7                    
++         6  7  6  6  6  5  6  6  6  7  8  6  6  7  7  6  6                    
++         5  6  6  6  6  6  6  6  7  9  5  6  6  5  6 10 10                    
++         7 10  9  7  8  7  8  7  6  8  6  7 10  8  8  6  6                    
++         6  7  6  8  7  0  0  0  0  0  0  0  0  0  0  0  0                    
%c M  cc GPS ccc cccc cccc cccc cccc ccccc ccccc ccccc ccccc                    
%c cc cc ccc ccc cccc cccc cccc cccc ccccc ccccc ccccc ccccc                    
%f  1.2500000  1.025000000  0.00000000000  0.000000000000000                    
%f  0.0000000  0.000000000  0.00000000000  0.000000000000000                    
%i    0    0    0    0      0      0      0      0         0                    
%i    0    0    0    0      0      0      0      0         0                    
/* PCV:IGS14_2178 OL/AL:FES2004  NONE     YN CLK:CoN ORB:CoN                    
/*     GeoForschungsZentrum Potsdam                                             
/*                                                                              
/*                                                                              
*  2021 12 21 21 30  0.00000000                                                 
PC01 -34305.402645  24466.889616    231.619872   -320.459507                    
PC02   4401.497138  41956.521974    921.185683    785.412325                    
PC03 -14828.023075  39461.543076   1164.251823    413.420403                    
PC04 -39601.257210  14397.966178    155.797225   -262.664315                    
PC05  21815.827471  36085.385323    954.153450    340.725535                    
PC06 -15879.591051  37448.845746 -11484.930132    673.253024                    
PC07  -1560.333259  34824.658388 -23655.600366     94.307896                    
PC08  -9030.512519  20215.783273  35867.072821     -3.435750                    
PC09 -12024.397199  36528.163080 -17505.521690   -368.059833                    
PC10   5052.599787  37133.535811 -18591.902161    138.031542                    
PC11   6839.309318 -23707.206831 -12999.308168   -319.010805                    
PC12  18247.446299 -20720.536635   4168.376402   -428.730807                    
PC13  -3533.687647  22337.854054  35697.467450   -170.843531                    
PC14  -4143.779186 -25559.110284 -10455.346326    490.017798                    
PC16 -19580.906758  36901.051591  -6472.637336     31.525316                    
PC19  11133.950055  25547.955303   1351.489598    919.759860                    
PC20  -2141.614871  22254.395701  16695.112056   -796.573750                    
PC21  14933.220460  -5399.986945 -22936.419832   -950.762413                    
PC22  18455.078316  14154.551461 -15411.569257   -964.585672                    
PC23 -25700.229438  -7760.955306   7596.448432   -963.649596                    
PC24  11417.139689 -14207.735505  21127.791013   -949.948535                    
PC25 -11552.954819 -15277.356574  20278.046874   -806.528195                    
PC26  25299.236739  -5767.030570  10309.319510    804.613753                    
PC27 -20650.879843  14180.030423 -12327.387213    648.887310                    
PC28 -16149.658057  -4044.277847 -22388.132719     11.629844                    
PC29   2843.813148  19969.604240  19282.372144    490.775470                    
PC30 -12614.333990  24528.609147   4314.121073    489.331427                    
PC32 -14951.388371   5435.747499  22936.630813   -956.793789                    
PC33 -11240.256959 -25508.822337  -1414.583523   -958.922930                    
PC34  12016.433681 -24632.125739  -5198.045418   -509.498450                    
PC35  16012.168613   4159.320962  22466.974567     56.822677                    
PC36  10735.574124  15625.927912 -20460.475418   -839.583547                    
PC37 -25866.770123   4508.983512  -9398.172740   -918.755837                    
PC38 -19329.235686  20345.623508  31437.650587    198.326008                    
PC39 -20264.035462  37045.743696  -1610.763150     34.424804                    
PC40  -6085.833834  30202.597395 -28727.195795    228.628631                    
PC41 -18507.330525 -14431.313417  15136.282410   -917.318988                    
PC42   2820.791127 -21745.859436 -17228.331703   -932.006265                    
PC43  -2327.359551 -20402.409587 -18888.711718   -952.960620                    
PC44  20206.621039 -14654.817580  12440.260708    505.854425                    
PC45  25829.888961   7567.462512  -7428.025295    633.072894                    
PC46  -9890.950018  14547.525842 -21653.237445    -72.880875                    
PC59 -32305.008802  27080.306076    -63.480484      0.028893                    
PC60   7302.938785  41517.629355    845.659588     -0.318168                    
PE01   6731.746430 -15354.140782  24396.004933   -542.943473                    
PE02  -6541.741375  15465.740575 -24378.041134    268.399944                    
PE03  -8199.675457  26860.726172   9328.261803   -508.803161                    
PE04  -4644.206893 -27844.251431   8897.877509   -925.801728                    
PE05 -16476.660762  10077.191292  22425.936985   -224.704275                    
PE07  15050.942425  12354.023959 -22295.039611   -620.070954                    
PE08   4977.991220  27650.188392  -9315.000914   5885.052950                    
PE09 -15028.182079 -12075.052809  22459.549436   5422.024547                    
PE11 -21698.047673  -3481.185489 -19836.071045   4844.155055                    
PE12  -2830.544777 -16428.703538 -24451.135377   4849.296544                    
PE13  21251.553480   3852.200812  20251.137156    424.900345                    
PE14 -18864.988947  13361.054399 -17738.618408  -1682.742889                    
PE15   2715.400040  16414.527135  24493.973730    773.922602                    
PE18  11073.880551 -26076.165957   4028.931088  -1851.275762                    
PE19   9609.796257 -25513.104383 -11523.484135    457.959282                    
PE21  22169.268890  -1226.074043  19581.356406   -706.643628                    
PE24 -25307.122542 -15172.371742  -2139.143583  -1292.450821                    
PE25 -22289.592014   1028.824940 -19436.752206   -557.646281                    
PE26  27124.639935 -11451.708054   3098.634158   -596.687209                    
PE27  25685.205362  14368.918273   3252.190084   -192.014356                    
PE30  12925.583560  21511.022036 -15722.168004   -128.482533                    
PE31 -14044.595486 -21389.354068  14878.741648   -489.676984                    
PE33  17367.221207 -19250.295109 -14268.746231   -461.197660                    
PE36 -27203.316304  10921.538312  -4110.048505   -307.084705                    
PG01   -723.379930 -15088.228350 -22087.020357    477.885463                    
PG02 -19263.287469  15661.136890  10238.698190   -646.398973                    
PG03  -9419.200286 -20900.900283 -13604.564748    -49.460975                    
PG04   -543.265653 -24857.360634   9232.750901   -198.198147                    
PG05  -5281.749372  14891.274705  21164.268871    -65.200485                    
PG06 -25680.599110   5133.439162  -4559.313022    148.995042                    
PG07 -17306.152168  -8561.352168  18818.277280    293.514974                    
PG08   6220.760333 -25556.017974   1967.651097    -48.985553                    
PG09  -9382.126584 -17459.208072  17590.888475   -359.960372                    
PG10  22196.852253   9441.947948 -11314.178618   -274.255153                    
PG11 -21972.987764  12110.692134   8692.328599     10.774756                    
PG12   6039.162916  21176.546525 -15204.663336   -144.199280                    
PG13 -13166.375041  21649.967164   7534.573297    233.057576                    
PG14 -21854.727327 -10175.517512 -11218.533470    -58.883666                    
PG15  -2898.973116  26187.284513    937.817406    -97.429078                    
PG16   9687.647812 -11344.762274  21695.100520   -443.947109                    
PG17 -14195.856689  -3375.481659 -21755.265440    550.722856                    
PG18  17568.601398   7799.224865  18369.228598    275.397353                    
PG19 -16257.765938   5545.298592 -20469.703138     95.257461                    
PG20 -14615.060760   8290.948567  20503.603017    517.538193                    
PG21   8855.258855 -16961.062448 -17475.196030    154.308949                    
PG22  -2312.013424 -18590.770682 -18734.771422   -435.945497                    
PG23  20622.805316  16800.085430   -762.130598     19.377433                    
PG24  -3098.901227  17329.576084 -20063.329647    275.669926                    
PG25  16342.797965  20287.254683  -6166.764279    259.246079                    
PG26  19525.406429  -1157.667709  18029.451387    167.177490                    
PG27  12218.438865 -20246.496028  11507.969638     16.617929                    
PG28 -19569.192608  -4192.488704 -16818.024341    438.389038                    
PG29   4906.151347  20795.315436  15701.018738   -457.077269                    
PG30 -23980.143495  -1636.266565  11626.108670   -501.057908                    
PG31  26015.560724  -6151.475090  -2267.892545   -156.161874                    
PG32  15587.750057  -1365.318691 -21323.007356    -38.517296                    
PJ01 -27462.965524  22899.869638  27279.433852 999999.999999                    
PJ02 -25898.719238  15720.655825 -24783.456005     -0.455206                    
PJ03 -26394.940771  32886.307570   1624.888393    -10.028692                    
PJ07 -25343.324815  33699.904493      7.760763     -0.002541                    
PR01  -6758.386993 -24595.805401   -539.758764      7.407968                    
PR02 -12130.639935 -13660.802551  17804.815326    504.016806                    
PR03 -10011.664885   4854.923687  22993.772735     48.542263                    
PR04  -2198.654996  20270.307604  15359.052454    119.922036                    
PR05   6667.601805  24624.311346   -802.564927     84.600160                    
PR07   9789.216771  -5477.632127 -22873.892198    -39.032566                    
PR08   2147.111655 -20334.973043 -15180.326377    -62.655786                    
PR09  23761.694902   8173.628711  -4156.241577     29.962096                    
PR11   8217.619386  -8856.578196  22472.635495     48.549790                    
PR12 -11391.588313 -12497.577978  19110.588467    288.444164                    
PR13 -23439.413203  -8591.141401   5207.618656    -15.937404                    
PR14 -21992.618690    617.046294 -12907.271563     72.348770                    
PR15  -7637.529745   9118.524203 -22547.136267     99.437122                    
PR17 -19574.797994  12493.663807 -10492.906715    485.619372                    
PR18 -15699.895407  19120.151564   6337.726374    101.265787                    
PR19  -4790.742308  16007.863977  19277.362850   -171.523505                    
PR20  12146.124911   2313.677666  22318.351295    -61.639435                    
PR21  19711.238346 -13325.262214   9242.676379   -264.003259                    
PR22  15254.756858 -19046.473659  -7271.454883   -152.959323                    
PR24 -12987.792626  -1761.405595 -21856.026563     72.214670                    
EOF                                     
